Satellite: NCUBE2
Catalog number: 28897
Epoch time:      06249.26374724
Element set:     115
Inclination:      098.1525 deg
RA of node:       146.2174 deg
Eccentricity:    0.0016539
Arg of perigee:   282.7486 deg
Mean anomaly:     077.1854 deg
Mean motion:   14.59597696 rev/day
Decay rate:       1.38e-06 rev/day^2
Epoch rev:            3795
Checksum:              353

/EX




From r.hoad at att.net  Thu Sep  7 20:00:48 2006
From: r.hoad at att.net (Ray Hoad)
Date: Thu, 07 Sep 2006 22:00:48 -0500
Subject: [keps]  orb06250.2l.amsat
Message-ID: <4500DCE0.8060207@att.net>

SB KEPS @ AMSAT  $ORB06250.N
2Line Orbital Elements 06250.AMSAT

HR AMSAT ORBITAL ELEMENTS FOR AMATEUR SATELLITES IN NASA FORMAT
FROM WA5QGD FORT WORTH,TX September 7, 2006
Send SUBSCRIBE KEPS/UNSUBSCRIBE KEPS to majordomo at amsat.org only
BID: ORB06250.N

DECODE 2-LINE ELSETS WITH THE FOLLOWING KEY:
1 AAAAAU 00  0  0 BBBBB.BBBBBBBB  .CCCCCCCC  00000-0  00000-0 0  DDDZ
2 AAAAA EEE.EEEE FFF.FFFF GGGGGGG HHH.HHHH III.IIII JJ.JJJJJJJJKKKKKZ
KEY: A-CATALOGNUM B-EPOCHTIME C-DECAY D-ELSETNUM E-INCLINATION F-RAAN
G-ECCENTRICITY H-ARGPERIGEE I-MNANOM J-MNMOTION K-ORBITNUM Z-CHECKSUM

TO ALL RADIO AMATEURS BT

AO-07
1 07530U 74089B   06249.66898568 -.00000028  00000-0  10000-3 0 06767
2 07530 101.5610 290.5427 0012168 088.1493 272.0967 12.53571538455592
AO-10
1 14129U 83058B   06249.40150486 -.00000005  00000-0  10000-3 0  3118
2 14129 027.3317 317.0133 6029013 315.3720 009.7501 02.05867889174728
UO-11
1 14781U 84021B   06249.61509359  .00000416  00000-0  63030-4 0 01680
2 14781 098.2076 261.5628 0009536 010.2925 349.8476 14.79458973207802
RS-10/11
1 18129U 87054A   06249.59857817  .00000026  00000-0  11973-4 0 00956
2 18129 082.9231 267.9335 0010350 223.0975 136.9370 13.72777988962320
RS-15
1 23439U 94085A   06249.96719557 -.00000039  00000-0  10597-3 0 09748
2 23439 064.8154 104.9619 0166430 239.9712 118.4609 11.27551915481766
FO-29
1 24278U 96046B   06250.55556469 -.00000056  00000-0 -23780-4 0  3122
2 24278 098.5165 243.7065 0351408 096.0459 268.0834 13.52923608496683
SO-33
1 25509U 98061B   06249.74305337  .00000203  00000-0  29458-4 0  7375
2 25509 031.4312 028.2337 0354782 109.4464 254.4822 14.28115794410700
AO-40
1 26609U 00072B   06247.67421211  .00000003  00000-0  10000-3 0  7765
2 26609 005.8847 221.9825 7967532 198.5493 091.6004 01.25585834 26856
VO-52
1 28650U 05017B   06249.25670427  .00000367  00000-0  53671-4 0 04232
2 28650 097.8665 320.8295 0028524 097.9589 262.4850 14.81167793072385
AO-16
1 20439U 90005D   06249.63660782  .00000009  00000-0  18622-4 0  8385
2 20439 098.1892 255.0052 0010615 317.2687 042.7665 14.31731832867973
WO-18
1 20441U 90005F   06249.61902379 -.00000020  00000-0  76097-5 0 00395
2 20441 098.1879 259.6120 0011168 316.9289 043.1015 14.31801602868030
LO-19
1 20442U 90005G   06250.63117341  .00000027  00000-0  25158-4 0  7740
2 20442 098.1883 265.4596 0011433 313.1179 046.9058 14.31974828868253
UO-22
1 21575U 91050B   06250.41462734  .00000050  00000-0  29444-4 0  7922
2 21575 098.3029 205.5661 0006990 176.2289 183.8945 14.39561418794849
KO-23
1 22077U 92052B   06250.62468642 -.00000037  00000-0  10000-3 0  8924
2 22077 066.0859 289.4020 0005879 336.0705 024.0032 12.86437871661148
AO-27
1 22825U 93061C   06249.51922043  .00000139  00000-0  70867-4 0  4906
2 22825 098.2910 227.3876 0009224 025.8564 334.3075 14.29183125674976
IO-26
1 22826U 93061D   06249.54515868  .00000007  00000-0  18905-4 0 01842
2 22826 098.2853 228.5929 0009585 023.7584 336.4046 14.29426506675058
PO-28
1 22829U 93061G   06249.49951200  .00000013  00000-0  20971-4 0  4647
2 22829 098.2751 229.7481 0009878 359.1161 001.0012 14.30122097675267
TO-31
1 25396U 98043C   06250.60035648 -.00000012  00000-0  13221-4 0  6178
2 25396 098.4718 307.9639 0002276 337.2573 022.8506 14.23711889424072
GO-32
1 25397U 98043D   06249.74760508  .00000006  00000-0  21359-4 0  1035
2 25397 098.4601 303.7083 0001304 016.5928 343.5297 14.23110269423842
UO-36
1 25693U 99021A   06249.67247750 -.00000173  00000-0 -40184-5 0 01341
2 25693 064.5609 352.4288 0027246 322.2040 037.7093 14.78612046397831
MO-46
1 26548U 00057D   06250.71723465  .00000243  00000-0  47636-4 0  5899
2 26548 064.5590 336.4651 0044041 235.5935 124.1005 14.83013551321649
NO-44
1 26931U 01043C   06249.72258447 -.00000189  00000-0 -41700-4 0  3944
2 26931 067.0533 157.6621 0005674 250.9995 109.0506 14.29450407257580
SO-50
1 27607U 02058C   06249.33021139  .00000061  00000-0  31569-4 0 01166
2 27607 064.5560 226.7736 0036299 114.4536 246.0358 14.71168551199361
CO-57
1 27848U 03031J   06250.56244621  .00000025  00000-0  32242-4 0  8093
2 27848 098.7214 257.0222 0009324 185.4109 174.6982 14.20281830165332
AO-51
1 28375U 04025K   06249.62220734  .00000006  00000-0  14976-4 0 06223
2 28375 098.1573 297.9147 0084284 322.0019 037.5243 14.40531419114891
XO-53
1 28894U 05043E   06249.75883830  .00000048  00000-0  19857-4 0 06461
2 28894 098.1553 146.7455 0016764 281.1828 078.7482 14.59503447045872
CO-56
1 28941U 06005C   06249.65974877  .00018671  24347-5  23333-3 0  1929
2 28941 098.1729 276.2470 0271655 187.4635 172.2633 15.27334325 29976
NOAA-10
1 16969U 86073A   06250.44426275 -.00000063  00000-0 -74316-5 0  3386
2 16969 098.7600 262.2545 0011631 273.1051 086.8809 14.27302455 38890
NOAA-11
1 19531U 88089A   06250.32526979 -.00000227  00000-0 -94618-4 0  2738
2 19531 098.8255 337.8498 0012303 113.7659 246.4820 14.14815005926159
NOAA-12
1 21263U 91032A   06250.36905169  .00000154  00000-0  83868-4 0  7659
2 21263 098.7358 243.3289 0012255 206.3631 153.6939 14.25507574795954
MET-3/5
1 21655U 91056A   06249.95746164  .00000051  00000-0  10000-3 0 01928
2 21655 082.5552 203.0164 0012355 191.7481 168.3352 13.17007694724123
MET-2/21
1 22782U 93055A   06249.60411990  .00000048  00000-0  30411-4 0 06097
2 22782 082.5446 266.8616 0021159 314.8469 045.0970 13.83609956657306
OKEAN-4
1 23317U 94066A   06249.75925715  .00000108  00000-0  10374-4 0   431
2 23317 082.5397 200.9138 0023828 104.3588 256.0282 14.82393034642067
NOAA-14
1 23455U 94089A   06250.32979584 -.00000213  00000-0 -88495-4 0  2651
2 23455 099.0304 309.4499 0009499 174.8090 185.3172 14.13680014602670
SICH-1
1 23657U 95046A   06250.68684000  .00000049  00000-0  32030-5 0  8470
2 23657 082.5325 340.9594 0025842 091.9705 268.4499 14.81386569594209
NOAA-15
1 25338U 98030A   06250.40988310  .00000085  00000-0  54654-4 0  6535
2 25338 098.5195 250.2657 0011244 130.6001 229.6186 14.24601536432421
RESURS
1 25394U 98043A   06249.78530806 -.00000012  00000-0  13118-4 0 04756
2 25394 098.4874 309.8949 0001037 333.3150 026.7976 14.24110690424012
FENGYUN1
1 25730U 99025A   06250.61517903 -.00000106  00000-0 -34717-4 0  8182
2 25730 098.6314 240.0663 0013615 267.9519 092.0110 14.11813968377648
OKEAN-0
1 25860U 99039A   06250.72466743  .00000080  00000-0  19508-4 0  8458
2 25860 097.7336 261.2119 0000865 111.0758 249.0539 14.73386707383903
NOAA-16
1 26536U 00055A   06250.39397280  .00000337  00000-0  20752-3 0   337
2 26536 099.0749 218.0121 0009823 248.9517 111.0619 14.12368280307188
NOAA-17
1 27453U 02032A   06250.32217389  .00000023  00000-0  28885-4 0   526
2 27453 098.6155 320.9166 0011635 192.8096 167.2810 14.23806633218467
NOAA-18
1 28654U 05018A   06250.32372121  .00000380  00000-0  23564-3 0  6242
2 28654 098.7915 191.8584 0014624 352.3342 007.7615 14.10990028 66968
HUBBLE
1 20580U 90037B   06249.39886175  .00000454  00000-0  22550-4 0 07126
2 20580 028.4692 240.4648 0003474 325.8521 034.1846 15.00087268697308
UARS
1 21701U 91063B   06249.95350134  .00006505  00000-0  12215-3 0 08664
2 21701 056.9759 099.8207 0102037 010.0888 350.2177 15.44505766821938
PO-34
1 25520U 98064B   06249.93885905  .00000718  00000-0  25883-4 0 05610
2 25520 028.4601 204.2085 0005227 053.0115 307.0957 15.16781491434475
ISS
1 25544U 98067A   06250.93043191  .00014962  00000-0  99164-4 0  6265
2 25544 051.6324 121.1990 0011163 313.9612 167.8171 15.75700097446212
OO-38
1 26063U 00004C   06250.73268566  .00000006  00000-0  22431-4 0  7111
2 26063 100.1903 196.6423 0036563 234.7487 125.0268 14.35776136346518
NO-45
1 26932U 01043D   06249.94280226 -.00000021  00000-0  24075-4 0 04153
2 26932 067.0551 156.8131 0007231 237.9445 122.0954 14.29533965257655
UWE-1
1 28892U 05043C   06250.60950331  .00000149  00000-0  41296-4 0  5458
2 28892 098.1530 147.4525 0016517 276.4247 083.5069 14.59391412 45994
CO-58
1 28895U 05043F   06250.73485969  .00000155  00000-0  42412-4 0  5307
2 28895 098.1507 147.6830 0017100 275.5760 084.3501 14.59442163 45890
NCUBE2
1 28897U 05043H   06249.26374724  .00000138  00000-0  38823-4 0  1152
2 28897 098.1525 146.2174 0016539 282.7486 077.1854 14.59597696 37959
/EX





From r.hoad at att.net  Thu Sep 14 20:01:29 2006
From: r.hoad at att.net (Ray Hoad)
Date: Thu, 14 Sep 2006 22:01:29 -0500
Subject: [keps]  Changes to the AMSAT KEP list - Drop Inactive Satellites
Message-ID: <450A1789.8070309@att.net>

This week I have dropped 8 inactive satellites from the AMSAT KEP list 
and renamed one to match the weekly AMSAT Satellite Report.

The following inactive satellites have been dropped:

AO-10  Cat# 14129 (rats!)
WO-18  Cat# 20441
UO-22  Cat# 21575
KO-23  Cat# 22077
TO-31  Cat# 25396
UO-36  Cat# 25693
AO-40  Cat# 26609
XO-53  Cat# 28894

CO-56 has been renamed to CO-55 (Cat# 28941) to match the weekly AMSAT 
Satellite Report.





From r.hoad at att.net  Thu Sep 14 20:02:46 2006
From: r.hoad at att.net (Ray Hoad)
Date: Thu, 14 Sep 2006 22:02:46 -0500
Subject: [keps]  orb06257.amsat
Message-ID: <450A17D6.2040506@att.net>

SB KEPS @ AMSAT  $ORB06257.O
Orbital Elements  06257.OSCAR

HR AMSAT ORBITAL ELEMENTS FOR OSCAR SATELLITES
FROM WA5QGD FORT WORTH,TX September 14, 2006
Send SUBSCRIBE KEPS/UNSUBSCRIBE KEPS to majordomo at amsat.org only
BID: ORB06257.O
TO ALL RADIO AMATEURS BT

